#aV2007  7 24  0  0   .00000000      96 DD+AD WGS84 FIT  NGA
## 1437 172800.00000000   900.00000000 54305  .0000000000000
+   31     1  2  3  4  5  6  7  8  9 10 11 12 13 14 16 17 18
+         19 20 21 22 23 24 25 26 27 28 29 30 31 32  0  0  0
+          0  0  0  0  0  0  0  0  0  0  0  0  0  0  0  0  0
+          0  0  0  0  0  0  0  0  0  0  0  0  0  0  0  0  0
+          0  0  0  0  0  0  0  0  0  0  0  0  0  0  0  0  0
++         0  0  0  0  0  0  0  0  0  0  0  0  0  0  0  0  0
++         0  0  0  0  0  0  0  0  0  0  0  0  0  0  0  0  0
++         0  0  0  0  0  0  0  0  0  0  0  0  0  0  0  0  0
++         0  0  0  0  0  0  0  0  0  0  0  0  0  0  0  0  0
++         0  0  0  0  0  0  0  0  0  0  0  0  0  0  0  0  0
%c cc cc ccc ccc cccc cccc cccc cccc ccccc ccccc ccccc ccccc
%c cc cc ccc ccc cccc cccc cccc cccc ccccc ccccc ccccc ccccc
%f  0.0000000  0.000000000  0.00000000000  0.000000000000000
%f  0.0000000  0.000000000  0.00000000000  0.000000000000000
%i    0    0    0    0      0      0      0      0         0
%i    0    0    0    0      0      0      0      0         0
/*      NGA, ST. LOUIS,MO.                                  
/*   EPHEMERIS COMPUTED FROM  3 DAYS OF DATA                
/* CCCCCCCCCCCCCCCCCCCCCCCCCCCCCCCCCCCCCCCCCCCCCCCCCCCCCCCCC
/* CCCCCCCCCCCCCCCCCCCCCCCCCCCCCCCCCCCCCCCCCCCCCCCCCCCCCCCCC
*  2007  7 24 21  0   .00000000                                                 
P  1  15183.516654 -18630.845206 -11011.168840    141.861560                    
V  1  -3667.907455  13914.442878 -28142.137009       .023586                    
P  2 -19253.050025  13027.327240  12368.467731    123.993559                    
V  2 -16435.854180    318.553557 -25804.203333       .028137                    
P  3  10241.438899 -23456.316679   6182.369592     91.367213                    
V  3   2101.685436   8951.882778  29807.149503       .055109                    
P  4 -25924.048742   6269.174425   2054.511399      5.221250                    
V  4  -3164.581030  -2467.399996 -31030.278664      -.017747                    
P  5  14562.702558  21211.845845  -7152.224332    216.627124                    
V  5  -8452.654618  -3828.010976 -29432.280014       .431824                    
P  6  10267.577600  15393.030180  19233.978022    239.358183                    
V  6  -8459.253580  22656.275150 -13788.945833       .047301                    
P  7  12186.160434  12487.589386  20359.637501    186.988011                    
V  7  -7731.015694  24009.987204 -10327.654231      -.207819                    
P  8 -25888.961866   -749.770144   6759.313800   -116.229481                    
V  8   8256.310612  -3034.514707  30330.596784      -.015037                    
P  9   1214.139811  15437.467756 -22175.827868     80.120669                    
V  9 -26056.560105   5870.816712   2941.137151       .017011                    
P 10  -7411.919240  13898.338406  21219.532553    105.247741                    
V 10 -18003.075108 -20469.583592   7388.602905       .005236                    
P 11  -4499.398409 -16131.520972 -20712.316602     21.069550                    
V 11  24787.826191  -9058.272037   1981.606340       .006920                    
P 12   9134.894001  22265.812928 -11204.255437    -50.458881                    
V 12 -11237.151916  -9243.273045 -27216.964370      -.011786                    
P 13  -8500.624704 -14710.834146  20314.705748    192.655047                    
V 13   9946.197425 -23973.461396 -13099.335131       .031709                    
P 14  16187.887335  -5532.369331 -20207.229638     31.715595                    
V 14  -8056.189282  24523.936031 -13200.009953       .020556                    
P 16  12121.313891  -9165.484061  21866.082459    164.860019                    
V 16  17825.581077  21018.423319   -919.525487       .025607                    
P 17 -16376.572858   3005.648383 -20644.160065     60.101085                    
V 17   7757.294173 -25143.095838  -9935.914666      -.011623                    
P 18  19747.127252  16550.518779  -7011.315534   -243.193171                    
V 18   3594.836607   8692.046335  29660.430541       .013745                    
P 19   6664.616877 -25136.660068  -4958.425495     53.209001                    
V 19   5225.904355  -4811.534447  30916.409536       .028694                    
P 20 -11406.630178 -22294.220556  -9005.218377    -27.199283                    
V 20   9604.538110   6551.391659 -28687.613081      -.004838                    
P 21  21424.943946   7231.839335  14520.254475     78.678225                    
V 21 -17437.255211   5082.783881  22830.932222       .000247                    
P 22  19694.749569   5448.380316 -16833.490454    191.972213                    
V 22  11933.487371  18218.415343  19635.400742       .013564                    
P 23  -2429.118303 -22328.903061  13918.174733    184.770284                    
V 23   7778.575790 -16238.168903 -24758.739290       .033957                    
P 24   9512.485684  13562.371407  20905.844827     17.634731                    
V 24 -25761.279200   4676.268045   9057.651930       .028462                    
P 25 -14977.462651 -10017.690373  19828.994414    380.534959                    
V 25  23075.942247  -8143.603610  13716.536037       .159467                    
P 26  -8149.769672  24906.678789  -1975.839473   -326.104358                    
V 26  -2811.334003   1054.727889  32695.429207      -.223011                    
P 27 -21175.393463  -5753.332249  15769.744654    124.671866                    
V 27  17760.367078  -6263.928459  22277.980219       .023458                    
P 28 -20471.827848  -9168.140547 -14147.193703     -3.616576                    
V 28 -10270.679070 -15404.932212  23925.126232      -.006704                    
P 29 -10665.901660  23853.766235   3607.869996      4.681775                    
V 29   -663.787192  -4843.745867  32190.097454       .002747                    
P 30  17636.306993  19923.167916  -1174.397274     40.451578                    
V 30  -3056.182341   1353.798750 -31326.587828       .010576                    
P 31  24754.085609  -8501.115855   4944.744993     14.817151                    
V 31   6411.365835   1342.372225 -30938.790661      -.010747                    
P 32  13247.150538  -6713.614066 -21543.504404    527.293548                    
V 32  16665.512589  23068.311465   3119.889718       .199250                    
EOF
